O3B MPOWER F1           
1 54755U 22174A   24185.90648130 -.00000024  00000+0  00000+0 0  9998
2 54755   0.0605 352.3601 0006824 109.1720 211.5816  5.00114175 29671
